start=new Date('2023-04-09T00:00:00.000Z').valueOf();
sats=[{"OBJECT_ID":"2021-012AK","OBJECT_TYPE":"PAYLOAD","REF_FRAME":"TEME","ARG_OF_PERICENTER":"93.9926","COUNTRY_CODE":"US","REV_AT_EPOCH":"11955","CENTER_NAME":"EARTH","MEAN_MOTION_DOT":"0.00008535","DECAY_DATE":null,"PERIAPSIS":"546.049","MEAN_MOTION_DDOT":"0.0000000000000","TLE_LINE1":"1 47653U 21012AK  23098.48389033  .00008535  00000-0  59095-3 0  9993","TIME_SYSTEM":"UTC","MEAN_MOTION":"15.06415153","EPOCH":"2023-04-08T11:36:48.124512","RCS_SIZE":"LARGE","GP_ID":"229728236","ECCENTRICITY":"0.00016140","LAUNCH_DATE":"2021-02-16","OBJECT_NAME":"STARLINK-2037","PERIOD":"95.591","EPHEMERIS_TYPE":"0","SITE":"AFETR","CLASSIFICATION_TYPE":"U","FILE":"3883527","SEMIMAJOR_AXIS":"6925.302","INCLINATION":"53.0521","MEAN_ELEMENT_THEORY":"SGP4","NORAD_CAT_ID":"47653","TLE_LINE2":"2 47653  53.0521 158.0032 0001614  93.9926 266.1248 15.06415153119553","MEAN_ANOMALY":"266.1248","BSTAR":"0.00059095000000","ELEMENT_SET_NO":"999","APOAPSIS":"548.285","RA_OF_ASC_NODE":"158.0032"},{"ELEMENT_SET_NO":"999","BSTAR":"0.00112110000000","APOAPSIS":"548.198","RA_OF_ASC_NODE":"177.9567","TLE_LINE2":"2 47654  53.0529 177.9567 0001363  77.1528 282.9613 15.06386677119288","MEAN_ANOMALY":"282.9613","MEAN_ELEMENT_THEORY":"SGP4","NORAD_CAT_ID":"47654","FILE":"3883527","CLASSIFICATION_TYPE":"U","INCLINATION":"53.0529","SEMIMAJOR_AXIS":"6925.389","SITE":"AFETR","LAUNCH_DATE":"2021-02-16","OBJECT_NAME":"STARLINK-2038","PERIOD":"95.593","EPHEMERIS_TYPE":"0","RCS_SIZE":"LARGE","GP_ID":"229729487","ECCENTRICITY":"0.00013630","EPOCH":"2023-04-08T11:50:05.445312","TIME_SYSTEM":"UTC","MEAN_MOTION":"15.06386677","TLE_LINE1":"1 47654U 21012AL  23098.49311858  .00016451  00000-0  11211-2 0  9998","MEAN_MOTION_DDOT":"0.0000000000000","PERIAPSIS":"546.310","MEAN_MOTION_DOT":"0.00016451","DECAY_DATE":null,"ARG_OF_PERICENTER":"77.1528","REV_AT_EPOCH":"11928","COUNTRY_CODE":"US","CENTER_NAME":"EARTH","REF_FRAME":"TEME","OBJECT_TYPE":"PAYLOAD","OBJECT_ID":"2021-012AL"},{"GP_ID":"229729234","ECCENTRICITY":"0.00016510","RCS_SIZE":"LARGE","EPOCH":"2023-04-08T11:39:29.022048","SITE":"AFETR","EPHEMERIS_TYPE":"0","PERIOD":"95.594","LAUNCH_DATE":"2021-02-16","OBJECT_NAME":"STARLINK-2039","NORAD_CAT_ID":"47655","MEAN_ELEMENT_THEORY":"SGP4","SEMIMAJOR_AXIS":"6925.436","INCLINATION":"53.0520","FILE":"3883527","CLASSIFICATION_TYPE":"U","RA_OF_ASC_NODE":"177.9954","APOAPSIS":"548.444","ELEMENT_SET_NO":"999","BSTAR":"0.00135450000000","MEAN_ANOMALY":"283.6672","TLE_LINE2":"2 47655  53.0520 177.9954 0001651  76.4500 283.6672 15.06371449119286","REF_FRAME":"TEME","OBJECT_ID":"2021-012AM","OBJECT_TYPE":"PAYLOAD","DECAY_DATE":null,"MEAN_MOTION_DOT":"0.00019936","CENTER_NAME":"EARTH","COUNTRY_CODE":"US","REV_AT_EPOCH":"11928","ARG_OF_PERICENTER":"76.4500","MEAN_MOTION_DDOT":"0.0000000000000","PERIAPSIS":"546.158","MEAN_MOTION":"15.06371449","TIME_SYSTEM":"UTC","TLE_LINE1":"1 47655U 21012AM  23098.48575257  .00019936  00000-0  13545-2 0  9996"},{"RA_OF_ASC_NODE":"158.2163","APOAPSIS":"548.286","ELEMENT_SET_NO":"999","BSTAR":"0.00051356000000","MEAN_ANOMALY":"257.7818","TLE_LINE2":"2 47656  53.0514 158.2163 0001611 102.3351 257.7818 15.06414260119556","NORAD_CAT_ID":"47656","MEAN_ELEMENT_THEORY":"SGP4","INCLINATION":"53.0514","SEMIMAJOR_AXIS":"6925.305","FILE":"3883527","CLASSIFICATION_TYPE":"U","SITE":"AFETR","EPHEMERIS_TYPE":"0","PERIOD":"95.591","OBJECT_NAME":"STARLINK-2040","LAUNCH_DATE":"2021-02-16","GP_ID":"229728486","ECCENTRICITY":"0.00016110","RCS_SIZE":"LARGE","EPOCH":"2023-04-08T10:27:48.418848","MEAN_MOTION":"15.06414260","TIME_SYSTEM":"UTC","TLE_LINE1":"1 47656U 21012AN  23098.43597707  .00007379  00000-0  51356-3 0  9997","MEAN_MOTION_DDOT":"0.0000000000000","PERIAPSIS":"546.054","DECAY_DATE":null,"MEAN_MOTION_DOT":"0.00007379","CENTER_NAME":"EARTH","COUNTRY_CODE":"US","REV_AT_EPOCH":"11955","ARG_OF_PERICENTER":"102.3351","REF_FRAME":"TEME","OBJECT_ID":"2021-012AN","OBJECT_TYPE":"PAYLOAD"},{"COUNTRY_CODE":"US","REV_AT_EPOCH":"11929","CENTER_NAME":"EARTH","ARG_OF_PERICENTER":"83.6385","DECAY_DATE":null,"MEAN_MOTION_DOT":"0.00023437","OBJECT_TYPE":"PAYLOAD","OBJECT_ID":"2021-012AP","REF_FRAME":"TEME","TLE_LINE1":"1 47657U 21012AP  23098.57421373  .00023437  00000-0  15878-2 0  9999","TIME_SYSTEM":"UTC","MEAN_MOTION":"15.06382729","PERIAPSIS":"546.384","MEAN_MOTION_DDOT":"0.0000000000000","PERIOD":"95.593","EPHEMERIS_TYPE":"0","OBJECT_NAME":"STARLINK-2041","LAUNCH_DATE":"2021-02-16","SITE":"AFETR","EPOCH":"2023-04-08T13:46:52.066272","RCS_SIZE":"LARGE","GP_ID":"229728736","ECCENTRICITY":"0.00012750","MEAN_ANOMALY":"276.4749","TLE_LINE2":"2 47657  53.0526 177.5977 0001275  83.6385 276.4749 15.06382729119297","RA_OF_ASC_NODE":"177.5977","ELEMENT_SET_NO":"999","BSTAR":"0.00158780000000","APOAPSIS":"548.149","SEMIMAJOR_AXIS":"6925.401","INCLINATION":"53.0526","CLASSIFICATION_TYPE":"U","FILE":"3883527","NORAD_CAT_ID":"47657","MEAN_ELEMENT_THEORY":"SGP4"},{"EPHEMERIS_TYPE":"0","PERIOD":"95.593","LAUNCH_DATE":"2021-02-16","OBJECT_NAME":"STARLINK-2042","SITE":"AFETR","EPOCH":"2023-04-08T10:25:10.742304","GP_ID":"229728988","ECCENTRICITY":"0.00016930","RCS_SIZE":"LARGE","MEAN_ANOMALY":"272.3832","TLE_LINE2":"2 47658  53.0522 178.2228 0001693  87.7351 272.3832 15.06389619119296","RA_OF_ASC_NODE":"178.2228","APOAPSIS":"548.418","BSTAR":"0.00027128000000","ELEMENT_SET_NO":"999","INCLINATION":"53.0522","SEMIMAJOR_AXIS":"6925.380","CLASSIFICATION_TYPE":"U","FILE":"3883527","NORAD_CAT_ID":"47658","MEAN_ELEMENT_THEORY":"SGP4","CENTER_NAME":"EARTH","REV_AT_EPOCH":"11929","COUNTRY_CODE":"US","ARG_OF_PERICENTER":"87.7351","DECAY_DATE":null,"MEAN_MOTION_DOT":"0.00003760","OBJECT_ID":"2021-012AQ","OBJECT_TYPE":"PAYLOAD","REF_FRAME":"TEME","TLE_LINE1":"1 47658U 21012AQ  23098.43415211  .00003760  00000-0  27128-3 0  9998","MEAN_MOTION":"15.06389619","TIME_SYSTEM":"UTC","PERIAPSIS":"546.073","MEAN_MOTION_DDOT":"0.0000000000000"},{"OBJECT_ID":"2021-012AR","OBJECT_TYPE":"PAYLOAD","REF_FRAME":"TEME","ARG_OF_PERICENTER":"110.5937","CENTER_NAME":"EARTH","COUNTRY_CODE":"US","REV_AT_EPOCH":"12090","MEAN_MOTION_DOT":"0.00021391","DECAY_DATE":null,"PERIAPSIS":"546.112","MEAN_MOTION_DDOT":"0.0000000000000","TLE_LINE1":"1 47659U 21012AR  23098.26088996  .00021391  00000-0  14489-2 0  9991","MEAN_MOTION":"15.06444139","TIME_SYSTEM":"UTC","EPOCH":"2023-04-08T06:15:40.892544","GP_ID":"229729734","ECCENTRICITY":"0.00013950","RCS_SIZE":"LARGE","LAUNCH_DATE":"2021-02-16","OBJECT_NAME":"STARLINK-2043","EPHEMERIS_TYPE":"0","PERIOD":"95.589","SITE":"AFETR","CLASSIFICATION_TYPE":"U","FILE":"3883527","INCLINATION":"53.0548","SEMIMAJOR_AXIS":"6925.213","MEAN_ELEMENT_THEORY":"SGP4","NORAD_CAT_ID":"47659","TLE_LINE2":"2 47659  53.0548  59.0018 0001395 110.5937 249.5202 15.06444139120908","MEAN_ANOMALY":"249.5202","APOAPSIS":"548.044","BSTAR":"0.00144890000000","ELEMENT_SET_NO":"999","RA_OF_ASC_NODE":"59.0018"},{"FILE":"3883527","CLASSIFICATION_TYPE":"U","INCLINATION":"53.0564","SEMIMAJOR_AXIS":"6925.215","MEAN_ELEMENT_THEORY":"SGP4","NORAD_CAT_ID":"47660","TLE_LINE2":"2 47660  53.0564  49.5389 0001301  74.9657 285.1476 15.06443421121040","MEAN_ANOMALY":"285.1476","ELEMENT_SET_NO":"999","BSTAR":"0.00150360000000","APOAPSIS":"547.981","RA_OF_ASC_NODE":"49.5389","EPOCH":"2023-04-08T06:43:40.073088","RCS_SIZE":"LARGE","GP_ID":"229727987","ECCENTRICITY":"0.00013010","OBJECT_NAME":"STARLINK-2044","LAUNCH_DATE":"2021-02-16","PERIOD":"95.589","EPHEMERIS_TYPE":"0","SITE":"AFETR","PERIAPSIS":"546.180","MEAN_MOTION_DDOT":"0.0000000000000","TLE_LINE1":"1 47660U 21012AS  23098.28032492  .00022212  00000-0  15036-2 0  9997","TIME_SYSTEM":"UTC","MEAN_MOTION":"15.06443421","OBJECT_ID":"2021-012AS","OBJECT_TYPE":"PAYLOAD","REF_FRAME":"TEME","ARG_OF_PERICENTER":"74.9657","COUNTRY_CODE":"US","REV_AT_EPOCH":"12104","CENTER_NAME":"EARTH","MEAN_MOTION_DOT":"0.00022212","DECAY_DATE":null},{"PERIAPSIS":"546.387","MEAN_MOTION_DDOT":"0.0000000000000","TLE_LINE1":"1 47661U 21012AT  23098.53182757  .00020022  00000-0  13601-2 0  9999","MEAN_MOTION":"15.06376161","TIME_SYSTEM":"UTC","OBJECT_ID":"2021-012AT","OBJECT_TYPE":"PAYLOAD","REF_FRAME":"TEME","ARG_OF_PERICENTER":"87.2305","CENTER_NAME":"EARTH","COUNTRY_CODE":"US","REV_AT_EPOCH":"11955","MEAN_MOTION_DOT":"0.00020022","DECAY_DATE":null,"CLASSIFICATION_TYPE":"U","FILE":"3883527","INCLINATION":"53.0521","SEMIMAJOR_AXIS":"6925.422","MEAN_ELEMENT_THEORY":"SGP4","NORAD_CAT_ID":"47661","TLE_LINE2":"2 47661  53.0521 157.7850 0001299  87.2305 272.8832 15.06376161119550","MEAN_ANOMALY":"272.8832","APOAPSIS":"548.186","BSTAR":"0.00136010000000","ELEMENT_SET_NO":"999","RA_OF_ASC_NODE":"157.7850","EPOCH":"2023-04-08T12:45:49.902048","GP_ID":"229728237","ECCENTRICITY":"0.00012990","RCS_SIZE":"LARGE","LAUNCH_DATE":"2021-02-16","OBJECT_NAME":"STARLINK-2051","EPHEMERIS_TYPE":"0","PERIOD":"95.594","SITE":"AFETR"},{"DECAY_DATE":null,"MEAN_MOTION_DOT":"0.00019915","COUNTRY_CODE":"US","REV_AT_EPOCH":"11956","CENTER_NAME":"EARTH","ARG_OF_PERICENTER":"87.1517","REF_FRAME":"TEME","OBJECT_ID":"2021-012AU","OBJECT_TYPE":"PAYLOAD","TIME_SYSTEM":"UTC","MEAN_MOTION":"15.06375203","TLE_LINE1":"1 47662U 21012AU  23098.44610257  .00019915  00000-0  13530-2 0  9991","MEAN_MOTION_DDOT":"0.0000000000000","PERIAPSIS":"546.406","SITE":"AFETR","PERIOD":"95.594","EPHEMERIS_TYPE":"0","OBJECT_NAME":"STARLINK-2052","LAUNCH_DATE":"2021-02-16","RCS_SIZE":"LARGE","ECCENTRICITY":"0.00012760","GP_ID":"229729488","EPOCH":"2023-04-08T10:42:23.262048","RA_OF_ASC_NODE":"158.1720","ELEMENT_SET_NO":"999","BSTAR":"0.00135300000000","APOAPSIS":"548.173","MEAN_ANOMALY":"272.9618","TLE_LINE2":"2 47662  53.0517 158.1720 0001276  87.1517 272.9618 15.06375203119566","NORAD_CAT_ID":"47662","MEAN_ELEMENT_THEORY":"SGP4","INCLINATION":"53.0517","SEMIMAJOR_AXIS":"6925.425","FILE":"3883527","CLASSIFICATION_TYPE":"U"}];
